{"spkid": "50633073", "covariance": {"elements": [{"units": null, "title": "eccentricity", "value": ".4031956142736938", "sigma": 2.53817179666565e-06, "name": "e", "label": "e"}, {"name": "q", "sigma": 2.29756588633615e-06, "title": "perihelion distance", "value": ".5499424242263613", "units": "au", "label": "q"}, {"label": "tp", "units": "TDB", "title": "time of perihelion passage", "value": "2456795.149486288203", "sigma": 0.000173768584047228, "name": "tp"}, {"name": "om", "sigma": 1.5437308202001e-05, "units": "deg", "value": "8.244441429956849", "title": "longitude of the ascending node", "label": "node"}, {"label": "peri", "sigma": 4.58996621720203e-05, "name": "w", "units": "deg", "title": "argument of perihelion", "value": "321.2356385317484"}, {"label": "i", "sigma": 6.49719008634421e-05, "name": "i", "title": "inclination", "value": "8.62347716895615", "units": "deg"}], "data": [["6.442316069388951E-12", "-5.831609250666693E-12", "-4.39347521289982E-10", "7.18644871804062E-12", "1.051722493706904E-10", "1.597093986678771E-10"], ["-5.831609250666693E-12", "5.278809002055625E-12", "3.977213958855071E-10", "-6.505192985076039E-12", "-9.519702910803173E-11", "-1.445629008955885E-10"], ["-4.39347521289982E-10", "3.977213958855071E-10", "3.019552080177839E-8", "-5.40909047823769E-10", "-6.977026308193454E-9", "-1.080430909276696E-8"], ["7.18644871804062E-12", "-6.505192985076039E-12", "-5.40909047823769E-10", "2.383104845235681E-10", "-1.433643366724817E-10", "3.018186474933481E-10"], ["1.051722493706904E-10", "-9.519702910803173E-11", "-6.977026308193454E-9", "-1.433643366724817E-10", "2.106778987505594E-9", "2.536675225757896E-9"], ["1.597093986678771E-10", "-1.445629008955885E-10", "-1.080430909276696E-8", "3.018186474933481E-10", "2.536675225757896E-9", "4.221347901808953E-9"]], "labels": ["e", "q", "tp", "node", "peri", "i"], "epoch": "2456638.5"}, "elements": [{"name": "e", "sigma": "2.5401E-6", "units": null, "title": "eccentricity", "value": ".4032298440842051", "label": "e"}, {"label": "a", "sigma": "6.1137E-8", "name": "a", "title": "semi-major axis", "value": ".9214229104576491", "units": "au"}, {"label": "q", "units": "au", "value": ".5498776939381969", "title": "perihelion distance", "sigma": "2.3042E-6", "name": "q"}, {"title": "inclination; angle with respect to x-y ecliptic plane", "value": "8.622197417279772", "units": "deg", "sigma": "6.4942E-5", "name": "i", "label": "i"}, {"sigma": "1.5403E-5", "name": "om", "units": "deg", "title": "longitude of the ascending node", "value": "8.150511113727891", "label": "node"}, {"label": "peri", "name": "w", "sigma": "4.7531E-5", "units": "deg", "value": "321.3330103284742", "title": "argument of perihelion"}, {"title": "mean anomaly", "value": "228.4504430683084", "units": "deg", "sigma": ".00033632", "name": "ma", "label": "M"}, {"title": "time of perihelion passage", "value": "2461318.552129469813", "units": "TDB", "sigma": ".00031351", "name": "tp", "label": "tp"}, {"label": "period", "sigma": "3.2153E-5", "name": "per", "units": "d", "title": "sidereal orbital period", "value": "323.0627878982569"}, {"label": "n", "sigma": "1.109E-7", "name": "n", "units": "deg/d", "value": "1.114334468361537", "title": "mean motion"}, {"label": "Q", "sigma": "8.5789E-8", "name": "ad", "value": "1.292968126977101", "title": "aphelion distance", "units": "au"}], "epoch": "2461200.5"}